     2.11           N: GPS NAV DATA                         RINEX VERSION / TYPE
teqc  2019Feb25                         20221121 12:26:07UTCPGM / RUN BY / DATE
OSX ker:10.11.6|Core i5|gcc 4.3 -m64|OSX ker:10.10+|=+      COMMENT
    4.6566D-09  1.4901D-08 -5.9605D-08 -1.1921D-07          ION ALPHA
    7.7824D+04  4.9152D+04 -6.5536D+04 -2.6214D+05          ION BETA
    2.793967723846D-09 4.440892098501D-15   405504     1544 DELTA-UTC: A0,A1,T,W
                                                            END OF HEADER
19 09  8 12  0  0  0.0 1.551164314151D-05-1.591615728103D-12 0.000000000000D+00
    3.100000000000D+01-2.546875000000D+01 4.741268921453D-09-2.915996635902D+00
   -1.195818185806D-06 5.791226285510D-03 1.020729541779D-05 5.153640449524D+03
    2.592000000000D+05-8.754432201386D-08-2.747936822004D+00-5.587935447693D-09
    9.578272586300D-01 1.811250000000D+02-2.956768610424D-01-7.895328872139D-09
   -2.382242087088D-10 1.000000000000D+00 1.544000000000D+03 0.000000000000D+00
    2.000000000000D+00 0.000000000000D+00-1.443549990654D-08 3.100000000000D+01
    2.520180000000D+05 4.000000000000D+00
 8 09  8 12  0  0  0.0-2.162288874388D-04-1.705302565824D-12 0.000000000000D+00
    3.400000000000D+01-1.687500000000D+00 3.732298322349D-09 5.582642852626D-01
   -4.097819328308D-08 1.083157421090D-02 8.177012205124D-06 5.153631729126D+03
    2.592000000000D+05 2.533197402954D-07 1.429217670801D+00 2.235174179077D-08
    9.893378396521D-01 2.369375000000D+02 3.005041707638D+00-7.791395971488D-09
    4.275178078327D-10 1.000000000000D+00 1.544000000000D+03 0.000000000000D+00
    2.000000000000D+00 0.000000000000D+00-3.725290298462D-09 3.400000000000D+01
    2.520180000000D+05 4.000000000000D+00
 3 09  8 12  0  0  0.0 4.324754700065D-04 5.115907697473D-12 0.000000000000D+00
    1.360000000000D+02-4.731250000000D+01 5.443798184617D-09 2.651777526984D+00
   -2.535060048103D-06 1.222762709949D-02 8.970499038696D-06 5.153645738602D+03
    2.592000000000D+05 2.607703208923D-08-2.937294473168D+00-1.806765794754D-07
    9.268406158662D-01 1.884062500000D+02 9.244433700456D-01-8.175697693483D-09
   -2.625109346341D-10 1.000000000000D+00 1.544000000000D+03 0.000000000000D+00
    2.800000000000D+00 0.000000000000D+00-4.190951585770D-09 1.360000000000D+02
    2.520180000000D+05 4.000000000000D+00
11 09  8 12  0  0  0.0-1.467624679208D-05-1.705302565824D-12 0.000000000000D+00
    7.700000000000D+01 5.309375000000D+01 6.255974872179D-09 1.092780197722D+00
    3.067776560783D-06 9.624471771531D-03 1.047924160957D-05 5.153701225281D+03
    2.592000000000D+05-6.332993507385D-08-1.992821049681D+00 1.415610313416D-07
    8.890357039970D-01 1.383750000000D+02 7.130175952677D-01-8.953587238562D-09
   -1.632210845276D-10 1.000000000000D+00 1.544000000000D+03 0.000000000000D+00
    2.000000000000D+00 0.000000000000D+00-1.164153218269D-08 7.700000000000D+01
    2.520180000000D+05 4.000000000000D+00
28 09  8 12  0  0  0.0-2.618459984660D-05-1.136868377216D-13 0.000000000000D+00
    1.080000000000D+02-2.162500000000D+01 4.626621288776D-09-1.746661146579D+00
   -9.536743164063D-07 1.500024064444D-02 5.116686224937D-06 5.153647169113D+03
    2.592000000000D+05 2.477318048477D-07 2.445317958245D+00 7.078051567078D-08
    9.674015981025D-01 2.772187500000D+02-2.019663595164D+00-7.995690195448D-09
    3.114415442190D-10 1.000000000000D+00 1.544000000000D+03 0.000000000000D+00
    2.800000000000D+00 0.000000000000D+00-1.071020960808D-08 1.080000000000D+02
    2.520180000000D+05 4.000000000000D+00
22 09  8 12  0  0  0.0 1.935283653438D-04-7.958078640513D-13 0.000000000000D+00
    6.500000000000D+01 2.800000000000D+01 5.188073246932D-09-1.983341305418D+00
    1.400709152222D-06 5.271705449559D-03 3.244727849960D-06 5.153656661987D+03
    2.592000000000D+05 1.173466444016D-07-6.937975186058D-01-7.264316082001D-08
    9.388628166620D-01 3.082812500000D+02-1.898328644482D+00-8.521426380184D-09
   -2.017941198208D-10 1.000000000000D+00 1.544000000000D+03 0.000000000000D+00
    2.800000000000D+00 0.000000000000D+00-1.769512891769D-08 6.500000000000D+01
    2.520180000000D+05 4.000000000000D+00
18 09  8 12  0  0  0.0 4.387926310301D-06 2.955857780762D-12 0.000000000000D+00
    1.010000000000D+02 2.496875000000D+01 5.230932175036D-09-9.620523269639D-01
    1.261010766029D-06 1.082478917670D-02 3.039836883545D-06 5.153615047455D+03
    2.592000000000D+05 2.402812242508D-07-6.993236857985D-01 1.247972249985D-07
    9.411911502635D-01 3.122500000000D+02-2.394728826182D+00-8.687861884320D-09
   -2.335811581642D-10 1.000000000000D+00 1.544000000000D+03 0.000000000000D+00
    2.000000000000D+00 0.000000000000D+00-1.071020960808D-08 1.010000000000D+02
    2.520180000000D+05 4.000000000000D+00
15 09  8 12  0  0  0.0-3.137569874525D-04-1.932676241267D-12 0.000000000000D+00
    7.000000000000D+01-4.890625000000D+01 4.437327689652D-09-2.593852034840D+00
   -2.529472112656D-06 1.556162373163D-03 7.318332791328D-06 5.153647523880D+03
    2.592000000000D+05-7.450580596924D-09 3.045520982973D-01 2.980232238770D-08
    9.562539750849D-01 2.360312500000D+02-5.037765599044D-01-8.133553080847D-09
   -2.203663219990D-10 1.000000000000D+00 1.544000000000D+03 0.000000000000D+00
    2.000000000000D+00 0.000000000000D+00-9.778887033463D-09 7.000000000000D+01
    2.520180000000D+05 4.000000000000D+00
27 09  8 12  0  0  0.0 7.346738129854D-05 3.296918293927D-12 0.000000000000D+00
    4.100000000000D+01 7.593750000000D+00 3.901233930624D-09-2.654723994676D+00
    1.955777406693D-07 2.129821688868D-02 8.506700396538D-06 5.153756759644D+03
    2.592000000000D+05 2.346932888031D-07 1.309540886560D+00 7.636845111847D-08
    9.750919668029D-01 2.145000000000D+02-1.560471696138D+00-7.441381391975D-09
    4.700195782020D-10 1.000000000000D+00 1.544000000000D+03 0.000000000000D+00
    2.000000000000D+00 0.000000000000D+00-4.190951585770D-09 4.100000000000D+01
    2.521680000000D+05 4.000000000000D+00
26 09  8 12  0  0  0.0 6.456859409809D-05-2.273736754432D-13 0.000000000000D+00
    5.600000000000D+01-5.353125000000D+01 3.622650897951D-09 8.396024147307D-01
   -2.620741724968D-06 2.020937076304D-02 8.584931492806D-06 5.154916326523D+03
    2.592000000000D+05-2.868473529816D-07 3.768447406618D-01 0.000000000000D+00
    9.926790845655D-01 2.384687500000D+02 1.030437068949D+00-7.944616639458D-09
   -4.557332688342D-10 1.000000000000D+00 1.544000000000D+03 0.000000000000D+00
    2.000000000000D+00 0.000000000000D+00-6.519258022308D-09 5.600000000000D+01
    2.527380000000D+05 4.000000000000D+00
17 09  8 12  0  0  0.0 7.669813930988D-05 2.728484105319D-12 0.000000000000D+00
    1.600000000000D+01-3.565625000000D+01 4.700552939755D-09-2.289069597165D+00
   -1.804903149605D-06 4.611429758370D-03 9.503215551376D-06 5.153720321655D+03
    2.592000000000D+05 6.705522537231D-08-2.803747091137D+00-1.266598701477D-07
    9.601508392107D-01 1.948125000000D+02-2.636469913543D+00-8.002833350132D-09
   -2.142946405177D-10 1.000000000000D+00 1.544000000000D+03 0.000000000000D+00
    2.000000000000D+00 0.000000000000D+00-1.024454832077D-08 1.600000000000D+01
    2.531580000000D+05 4.000000000000D+00
 9 09  8 12  0  0  0.0 7.147714495659D-05 2.046363078989D-12 0.000000000000D+00
    1.850000000000D+02 2.718750000000D+00 4.061240595544D-09 3.123361361795D-01
   -4.470348358154D-08 2.075504383538D-02 9.063631296158D-06 5.153630191803D+03
    2.592000000000D+05-3.539025783539D-07 1.333785478250D+00-1.266598701477D-07
    9.770338208546D-01 2.179062500000D+02 1.503043656121D+00-8.162125699583D-09
    2.942979729776D-10 1.000000000000D+00 1.544000000000D+03 0.000000000000D+00
    2.800000000000D+00 0.000000000000D+00-5.587935447693D-09 1.850000000000D+02
    2.543280000000D+05 4.000000000000D+00
32 09  8 12  0  0  0.0 2.165697515011D-04-6.593836587854D-12 0.000000000000D+00
    1.300000000000D+01 3.171875000000D+01 4.631264339321D-09 1.993325553073D+00
    1.501291990280D-06 1.323446317110D-02 3.220513463020D-06 5.153752498627D+03
    2.592000000000D+05 1.676380634308D-07-6.420385494712D-01 2.048909664154D-08
    9.629234551813D-01 3.117500000000D+02-1.135027634845D+00-8.186769583243D-09
   -2.846547141543D-10 1.000000000000D+00 1.544000000000D+03 0.000000000000D+00
    2.000000000000D+00 0.000000000000D+00-3.259629011154D-09 1.300000000000D+01
    2.547180000000D+05 4.000000000000D+00
14 09  8 12  0  0  0.0-6.655696779490D-05 5.456968210638D-12 0.000000000000D+00
    3.100000000000D+01-6.215625000000D+01 3.569434395556D-09-2.790102455675D+00
   -3.099441528320D-06 4.760333336890D-03 8.258968591690D-06 5.153637044907D+03
    2.592000000000D+05-9.313225746155D-09 3.593975992897D-01 1.490116119385D-08
    9.883242480834D-01 2.335937500000D+02-2.167098146919D+00-7.631746464302D-09
   -2.089372745047D-10 1.000000000000D+00 1.544000000000D+03 0.000000000000D+00
    2.000000000000D+00 0.000000000000D+00-9.313225746155D-09 3.100000000000D+01
    2.554980000000D+05 4.000000000000D+00
20 09  8 12  0  0  0.0 7.499428465962D-05-9.094947017729D-13 0.000000000000D+00
    3.300000000000D+01 3.965625000000D+01 5.266647948455D-09-7.745378150661D-01
    1.991167664528D-06 3.841378493235D-03 3.617256879807D-06 5.153792728424D+03
    2.592000000000D+05-1.024454832077D-07-7.531984894432D-01 4.097819328308D-08
    9.408466198896D-01 2.964687500000D+02 1.340533702838D+00-8.694647881269D-09
   -1.732215010851D-10 1.000000000000D+00 1.544000000000D+03 0.000000000000D+00
    2.000000000000D+00 0.000000000000D+00-6.519258022308D-09 3.300000000000D+01
    2.565180000000D+05 4.000000000000D+00
